{"epoch":1784762836,"count":18316,"objects":[{"id":"51653","name":"ONEWEB-0473","type":"PAYLOAD","l1":"1 51653U 22012AH  26203.07330054 -.00000394  00000-0 -11640-2 0  9994","l2":"2 51653  87.8812  29.3227 0001830  90.9220 269.2117 13.10372105213877"},{"id":"51654","name":"ONEWEB-0474","type":"PAYLOAD","l1":"1 51654U 22012AJ  26203.52296654  .00000164  00000-0  43425-3 0  9992","l2":"2 51654  87.8816  29.2206 0001691  98.2211 261.9108 13.10369876213920"},{"id":"51655","name":"ONEWEB-0475","type":"PAYLOAD","l1":"1 51655U 22012AK  26203.00111037  .00000001  00000-0 -30866-4 0  9994","l2":"2 51655  87.9156 358.9477 0001616 115.6346 244.4953 13.17648671218278"},{"id":"54113","name":"ONEWEB-0490","type":"PAYLOAD","l1":"1 54113U 22138A   26203.54102397  .00000040  00000-0  66456-4 0  9999","l2":"2 54113  87.9190 297.9295 0002129 104.2278 255.9091 13.19724956181492"},{"id":"54114","name":"ONEWEB-0492","type":"PAYLOAD","l1":"1 54114U 22138B   26203.26302383  .00000023  00000-0  25419-4 0  9991","l2":"2 54114  87.9182 297.9840 0002258 101.5401 258.5985 13.19723861181463"},{"id":"54115","name":"ONEWEB-0495","type":"PAYLOAD","l1":"1 54115U 22138C   26203.31672837  .00000077  00000-0  16116-3 0  9994","l2":"2 54115  87.9177 297.9762 0002407 113.4806 246.6580 13.19726830181455"},{"id":"54116","name":"ONEWEB-0497","type":"PAYLOAD","l1":"1 54116U 22138D   26203.25354492 -.00000008  00000-0 -51157-4 0  9993","l2":"2 54116  87.9189 297.9828 0002061 102.5411 257.5952 13.19723741181439"},{"id":"54117","name":"ONEWEB-0499","type":"PAYLOAD","l1":"1 54117U 22138E   26203.31278770 -.00000018  00000-0 -77359-4 0  9998","l2":"2 54117  87.9185 297.9777 0002058 107.6971 252.4387 13.19724238181452"},{"id":"54118","name":"ONEWEB-0500","type":"PAYLOAD","l1":"1 54118U 22138F   26203.54260718  .00000088  00000-0  18761-3 0  9993","l2":"2 54118  87.9188 297.9285 0002073  98.0421 262.0947 13.19726565181498"},{"id":"54119","name":"ONEWEB-0501","type":"PAYLOAD","l1":"1 54119U 22138G   26203.26935433  .00000049  00000-0  90323-4 0  9998","l2":"2 54119  87.9191 297.9832 0002224 110.6030 249.5342 13.19726796181435"},{"id":"54120","name":"ONEWEB-0502","type":"PAYLOAD","l1":"1 54120U 22138H   26203.25512164  .00000014  00000-0  33764-5 0  9990","l2":"2 54120  87.9194 297.9750 0002004 107.8644 252.2707 13.19724116181456"},{"id":"54121","name":"ONEWEB-0503","type":"PAYLOAD","l1":"1 54121U 22138J   26203.54733673  .00000000  00000-0 -32075-4 0  9992","l2":"2 54121  87.9190 297.9233 0001763 101.0016 259.1315 13.19726448181483"},{"id":"54122","name":"ONEWEB-0504","type":"PAYLOAD","l1":"1 54122U 22138K   26203.30725058  .00000091  00000-0  19479-3 0  9996","l2":"2 54122  87.9190 297.9753 0001978 107.4343 252.7006 13.19726992181460"},{"id":"54123","name":"ONEWEB-0505","type":"PAYLOAD","l1":"1 54123U 22138L   26203.53154023  .00000078  00000-0  16184-3 0  9995","l2":"2 54123  87.9189 297.9311 0002146 112.5305 247.6055 13.19724346181471"},{"id":"54124","name":"ONEWEB-0506","type":"PAYLOAD","l1":"1 54124U 22138M   26203.50628760  .00000125  00000-0  28002-3 0  9992","l2":"2 54124  87.9192 297.9342 0002189 109.0287 251.1083 13.19726243181465"},{"id":"54125","name":"ONEWEB-0507","type":"PAYLOAD","l1":"1 54125U 22138N   26203.52679867  .00000077  00000-0  16082-3 0  9990","l2":"2 54125  87.9181 297.9386 0002178 105.5963 254.5411 13.19726807181516"},{"id":"54126","name":"ONEWEB-0508","type":"PAYLOAD","l1":"1 54126U 22138P   26203.52365005  .00000096  00000-0  20687-3 0  9994","l2":"2 54126  87.9182 297.9389 0002383 108.1373 252.0019 13.19726615181494"},{"id":"54127","name":"ONEWEB-0509","type":"PAYLOAD","l1":"1 54127U 22138Q   26203.27092740  .00000055  00000-0  10530-3 0  9991","l2":"2 54127  87.9193 297.9824 0002094 104.8666 255.2699 13.19725129181430"},{"id":"54128","name":"ONEWEB-0510","type":"PAYLOAD","l1":"1 54128U 22138R   26203.58619546 -.00000552  00000-0 -13909-2 0  9991","l2":"2 54128  87.9174 267.3812 0001809  84.6953 275.4387 13.20767397183957"},{"id":"54129","name":"ONEWEB-0511","type":"PAYLOAD","l1":"1 54129U 22138S   26203.26776474  .00000036  00000-0  57141-4 0  9994","l2":"2 54129  87.9188 297.9843 0001811 104.9787 255.1546 13.19724430181465"},{"id":"54130","name":"ONEWEB-0512","type":"PAYLOAD","l1":"1 54130U 22138T   26203.33567821  .00000020  00000-0  18493-4 0  9998","l2":"2 54130  87.9181 297.9737 0002001 110.3558 249.7790 13.19724252181441"},{"id":"54131","name":"ONEWEB-0513","type":"PAYLOAD","l1":"1 54131U 22138U   26203.32683657 -.00000050  00000-0 -15542-3 0  9990","l2":"2 54131  87.9188 297.9151 0001902 126.4209 233.7099 13.20269830181352"},{"id":"54132","name":"ONEWEB-0514","type":"PAYLOAD","l1":"1 54132U 22138V   26203.27566326  .00000073  00000-0  15020-3 0  9992","l2":"2 54132  87.9187 297.9818 0001953  96.3529 263.7826 13.19724654181458"},{"id":"54133","name":"ONEWEB-0515","type":"PAYLOAD","l1":"1 54133U 22138W   26203.57273052 -.00000005  00000-0 -45329-4 0  9990","l2":"2 54133  87.9180 267.3805 0002600  80.1597 279.9830 13.20772306183977"},{"id":"54134","name":"ONEWEB-0516","type":"PAYLOAD","l1":"1 54134U 22138X   26203.32620860 -.00000081  00000-0 -23392-3 0  9996","l2":"2 54134  87.9186 297.9758 0002182 101.0129 259.1250 13.19724044181461"},{"id":"54135","name":"ONEWEB-0517","type":"PAYLOAD","l1":"1 54135U 22138Y   26203.30567237  .00000082  00000-0  17233-3 0  9999","l2":"2 54135  87.9189 297.9746 0001714 101.2254 258.9072 13.19726484181462"},{"id":"54136","name":"ONEWEB-0518","type":"PAYLOAD","l1":"1 54136U 22138Z   26203.32463349  .00000014  00000-0  14261-5 0  9996","l2":"2 54136  87.9183 297.9781 0002234  99.5332 260.6053 13.19724505181461"},{"id":"54137","name":"ONEWEB-0519","type":"PAYLOAD","l1":"1 54137U 22138AA  26203.27408111  .00000111  00000-0  24438-3 0  9990","l2":"2 54137  87.9190 297.9821 0001803  99.7334 260.4002 13.19724292181465"},{"id":"54138","name":"ONEWEB-0520","type":"PAYLOAD","l1":"1 54138U 22138AB  26203.30883662 -.00000001  00000-0 -36064-4 0  9992","l2":"2 54138  87.9193 297.9759 0002136 105.4149 254.7220 13.19724547181458"},{"id":"54139","name":"ONEWEB-0521","type":"PAYLOAD","l1":"1 54139U 22138AC  26203.34199139  .00000058  00000-0  11215-3 0  9996","l2":"2 54139  87.9193 297.9579 0001820  99.2441 260.8898 13.19724522181400"}]}