OBJECT_NAME,OBJECT_ID,EPOCH,MEAN_MOTION,ECCENTRICITY,INCLINATION,RA_OF_ASC_NODE,ARG_OF_PERICENTER,MEAN_ANOMALY,EPHEMERIS_TYPE,CLASSIFICATION_TYPE,NORAD_CAT_ID,ELEMENT_SET_NO,REV_AT_EPOCH,BSTAR,MEAN_MOTION_DOT,MEAN_MOTION_DDOT
ONEWEB-0473,2022-012AH,2026-07-22T01:45:33.166656,13.10372105,.000183,87.8812,29.3227,90.9220,269.2117,0,U,51653,999,21387,-.11639986E-2,-.394E-5,0
ONEWEB-0474,2022-012AJ,2026-07-22T12:33:04.309056,13.10369876,.00016909,87.8816,29.2206,98.2211,261.9108,0,U,51654,999,21392,.43425317E-3,.164E-5,0
ONEWEB-0475,2022-012AK,2026-07-22T00:01:35.935968,13.17648671,.00016158,87.9156,358.9477,115.6346,244.4953,0,U,51655,999,21827,-.30865795E-4,.1E-7,0
ONEWEB-0490,2022-138A,2026-07-22T12:59:04.471008,13.19724956,.00021294,87.9190,297.9295,104.2278,255.9091,0,U,54113,999,18149,.66456154E-4,.4E-6,0
ONEWEB-0492,2022-138B,2026-07-22T06:18:45.258912,13.19723861,.00022576,87.9182,297.9840,101.5401,258.5985,0,U,54114,999,18146,.25419492E-4,.23E-6,0
ONEWEB-0495,2022-138C,2026-07-22T07:36:05.331168,13.19726830,.00024073,87.9177,297.9762,113.4806,246.6580,0,U,54115,999,18145,.16116491E-3,.77E-6,0
ONEWEB-0497,2022-138D,2026-07-22T06:05:06.281088,13.19723741,.0002061,87.9189,297.9828,102.5411,257.5952,0,U,54116,999,18143,-.51156692E-4,-.8E-7,0
ONEWEB-0499,2022-138E,2026-07-22T07:30:24.857280,13.19724238,.00020581,87.9185,297.9777,107.6971,252.4387,0,U,54117,999,18145,-.77358746E-4,-.18E-6,0
ONEWEB-0500,2022-138F,2026-07-22T13:01:21.260352,13.19726565,.00020734,87.9188,297.9285,98.0421,262.0947,0,U,54118,999,18149,.18761114E-3,.88E-6,0
ONEWEB-0501,2022-138G,2026-07-22T06:27:52.214112,13.19726796,.0002224,87.9191,297.9832,110.6030,249.5342,0,U,54119,999,18143,.90322758E-4,.49E-6,0
ONEWEB-0502,2022-138H,2026-07-22T06:07:22.509696,13.19724116,.00020038,87.9194,297.9750,107.8644,252.2707,0,U,54120,999,18145,.3376409E-5,.14E-6,0
ONEWEB-0503,2022-138J,2026-07-22T13:08:09.893472,13.19726448,.00017631,87.9190,297.9233,101.0016,259.1315,0,U,54121,999,18148,-.32075473E-4,0,0
ONEWEB-0504,2022-138K,2026-07-22T07:22:26.450112,13.19726992,.00019776,87.9190,297.9753,107.4343,252.7006,0,U,54122,999,18146,.19479366E-3,.91E-6,0
ONEWEB-0505,2022-138L,2026-07-22T12:45:25.075872,13.19724346,.00021463,87.9189,297.9311,112.5305,247.6055,0,U,54123,999,18147,.16183662E-3,.78E-6,0
ONEWEB-0506,2022-138M,2026-07-22T12:09:03.248640,13.19726243,.0002189,87.9192,297.9342,109.0287,251.1083,0,U,54124,999,18146,.28001776E-3,.125E-5,0
ONEWEB-0507,2022-138N,2026-07-22T12:38:35.405088,13.19726807,.00021779,87.9181,297.9386,105.5963,254.5411,0,U,54125,999,18151,.16082039E-3,.77E-6,0
ONEWEB-0508,2022-138P,2026-07-22T12:34:03.364320,13.19726615,.00023827,87.9182,297.9389,108.1373,252.0019,0,U,54126,999,18149,.20686563E-3,.96E-6,0
ONEWEB-0509,2022-138Q,2026-07-22T06:30:08.127360,13.19725129,.00020938,87.9193,297.9824,104.8666,255.2699,0,U,54127,999,18143,.10529563E-3,.55E-6,0
ONEWEB-0510,2022-138R,2026-07-22T14:04:07.287744,13.20767397,.00018095,87.9174,267.3812,84.6953,275.4387,0,U,54128,999,18395,-.13908886E-2,-.552E-5,0
ONEWEB-0511,2022-138S,2026-07-22T06:25:34.873536,13.19724430,.00018113,87.9188,297.9843,104.9787,255.1546,0,U,54129,999,18146,.57141208E-4,.36E-6,0
ONEWEB-0512,2022-138T,2026-07-22T08:03:22.597344,13.19724252,.00020015,87.9181,297.9737,110.3558,249.7790,0,U,54130,999,18144,.18493312E-4,.2E-6,0
ONEWEB-0513,2022-138U,2026-07-22T07:50:38.679648,13.20269830,.00019018,87.9188,297.9151,126.4209,233.7099,0,U,54131,999,18135,-.1554217E-3,-.5E-6,0
ONEWEB-0514,2022-138V,2026-07-22T06:36:57.305664,13.19724654,.00019532,87.9187,297.9818,96.3529,263.7826,0,U,54132,999,18145,.15019935E-3,.73E-6,0
ONEWEB-0515,2022-138W,2026-07-22T13:44:43.916928,13.20772306,.00025998,87.9180,267.3805,80.1597,279.9830,0,U,54133,999,18397,-.45328614E-4,-.5E-7,0
ONEWEB-0516,2022-138X,2026-07-22T07:49:44.423040,13.19724044,.00021824,87.9186,297.9758,101.0129,259.1250,0,U,54134,999,18146,-.2339215E-3,-.81E-6,0
ONEWEB-0517,2022-138Y,2026-07-22T07:20:10.092768,13.19726484,.00017145,87.9189,297.9746,101.2254,258.9072,0,U,54135,999,18146,.17232896E-3,.82E-6,0
ONEWEB-0518,2022-138Z,2026-07-22T07:47:28.333536,13.19724505,.00022335,87.9183,297.9781,99.5332,260.6053,0,U,54136,999,18146,.1426066E-5,.14E-6,0
ONEWEB-0519,2022-138AA,2026-07-22T06:34:40.607904,13.19724292,.00018034,87.9190,297.9821,99.7334,260.4002,0,U,54137,999,18146,.24438324E-3,.111E-5,0
ONEWEB-0520,2022-138AB,2026-07-22T07:24:43.483968,13.19724547,.00021356,87.9193,297.9759,105.4149,254.7220,0,U,54138,999,18145,-.36064073E-4,-.1E-7,0
ONEWEB-0521,2022-138AC,2026-07-22T08:12:28.056096,13.19724522,.00018199,87.9193,297.9579,99.2441,260.8898,0,U,54139,999,18140,.11214603E-3,.58E-6,0
